     2              NAVIGATION DATA                         RINEX VERSION / TYPE
CCRINEXN V1.6.0 UX  CDDIS               28-MAY-16 15:33     PGM / RUN BY / DATE 
IGS BROADCAST EPHEMERIS FILE                                COMMENT             
    0.1024D-07  0.2235D-07 -0.5960D-07 -0.1192D-06          ION ALPHA           
    0.9626D+05  0.1311D+06 -0.6554D+05 -0.5898D+06          ION BETA            
    0.000000000000D+00-0.266453525910D-14   589824     1898 DELTA-UTC: A0,A1,T,W
    17                                                      LEAP SECONDS        
                                                            END OF HEADER       
10 16  5 27 22  0  0.0-0.323359854519D-04-0.875388650456D-11 0.000000000000D+00
    0.480000000000D+02 0.130312500000D+02 0.450411618595D-08-0.135256356786D+01
    0.629574060440D-06 0.152783584781D-02 0.908039510250D-05 0.515367989922D+04
    0.511200000000D+06 0.596046447754D-07-0.112380438920D+01-0.875443220139D-07
    0.959198998877D+00 0.206500000000D+03-0.271467926956D+01-0.792533012181D-08
    0.205365697163D-09 0.000000000000D+00 0.189800000000D+04 0.000000000000D+00
    0.200000000000D+01 0.000000000000D+00 0.232830643654D-08 0.480000000000D+02
    0.504000000000D+06 0.400000000000D+01 0.000000000000D+00 0.000000000000D+00
11 16  5 27 22  0  0.0-0.648464076221D-03-0.136424205266D-11 0.000000000000D+00
    0.160000000000D+02-0.800000000000D+02 0.628133307131D-08 0.389514309040D+00
   -0.404007732868D-05 0.163834568812D-01 0.702030956745D-05 0.515366350174D+04
    0.511200000000D+06-0.197440385819D-06-0.253843825308D+01-0.745058059692D-07
    0.896820527466D+00 0.215500000000D+03 0.152619629504D+01-0.919824028649D-08
   -0.176435920693D-09 0.100000000000D+01 0.189800000000D+04 0.000000000000D+00
    0.200000000000D+01 0.000000000000D+00-0.121071934700D-07 0.160000000000D+02
    0.507810000000D+06 0.400000000000D+01 0.000000000000D+00 0.000000000000D+00
12 16  5 27 22  0  0.0 0.381018966436D-03 0.113686837722D-11 0.000000000000D+00
    0.105000000000D+03 0.663750000000D+02 0.409409910709D-08-0.284789087386D+00
    0.357069075108D-05 0.615289190318D-02 0.578165054321D-05 0.515372689819D+04
    0.511200000000D+06 0.819563865662D-07 0.207396880101D+01 0.819563865662D-07
    0.990155863943D+00 0.289406250000D+03 0.751138406741D+00-0.804140638542D-08
    0.303941231801D-09 0.100000000000D+01 0.189800000000D+04 0.000000000000D+00
    0.280000000000D+01 0.000000000000D+00-0.125728547573D-07 0.105000000000D+03
    0.510558000000D+06 0.400000000000D+01 0.000000000000D+00 0.000000000000D+00
13 16  5 27 22  0  0.0-0.207689590752D-04-0.261479726760D-11 0.000000000000D+00
    0.440000000000D+02 0.587500000000D+01 0.436268172320D-08 0.119855157989D+01
    0.322237610817D-06 0.436176976655D-02 0.682286918163D-05 0.515367606163D+04
    0.511200000000D+06 0.577419996262D-07 0.402561744770D-01-0.894069671631D-07
    0.971794711836D+00 0.253343750000D+03 0.200143287098D+01-0.801426239763D-08
   -0.203222750758D-09 0.100000000000D+01 0.189800000000D+04 0.000000000000D+00
    0.200000000000D+01 0.000000000000D+00-0.111758708954D-07 0.440000000000D+02
    0.504018000000D+06 0.400000000000D+01 0.000000000000D+00 0.000000000000D+00
14 16  5 27 22  0  0.0-0.161784701049D-04-0.204636307899D-11 0.000000000000D+00
    0.780000000000D+02 0.796875000000D+01 0.441804117201D-08 0.290134480475D+01
    0.420957803726D-06 0.866089703049D-02 0.696256756782D-05 0.515401228905D+04
    0.511200000000D+06 0.596046447754D-07 0.322912687181D-02-0.242143869400D-07
    0.964272789375D+00 0.245656250000D+03-0.196524921174D+01-0.783996942334D-08
   -0.171435712414D-09 0.000000000000D+00 0.189800000000D+04 0.000000000000D+00
    0.200000000000D+01 0.000000000000D+00-0.931322574616D-08 0.780000000000D+02
    0.504000000000D+06 0.400000000000D+01 0.000000000000D+00 0.000000000000D+00
17 16  5 27 22  0  0.0-0.203887932003D-03-0.113686837722D-12 0.000000000000D+00
    0.103000000000D+03-0.580000000000D+02 0.440089760076D-08 0.309402743610D+01
   -0.290013849735D-05 0.109650189988D-01 0.419653952122D-05 0.515369768906D+04
    0.511200000000D+06 0.176951289177D-06 0.311423097115D+01-0.242143869400D-06
    0.976688003113D+00 0.303031250000D+03-0.192845160089D+01-0.800426198107D-08
   -0.121433629627D-09 0.100000000000D+01 0.189800000000D+04 0.000000000000D+00
    0.280000000000D+01 0.000000000000D+00-0.107102096081D-07 0.103000000000D+03
    0.504018000000D+06 0.400000000000D+01 0.000000000000D+00 0.000000000000D+00
18 16  5 27 22  0  0.0 0.520214904100D-03 0.409272615798D-11 0.000000000000D+00
    0.360000000000D+02 0.261250000000D+02 0.533415076022D-08-0.163314113207D+01
    0.140629708767D-05 0.171978579601D-01 0.849738717079D-05 0.515368257141D+04
    0.511200000000D+06 0.450760126114D-06-0.115280379820D+01 0.247731804848D-06
    0.924677160447D+00 0.195156250000D+03-0.188367772326D+01-0.825748681461D-08
    0.204294223960D-09 0.100000000000D+01 0.189800000000D+04 0.000000000000D+00
    0.200000000000D+01 0.000000000000D+00-0.121071934700D-07 0.360000000000D+02
    0.504000000000D+06 0.400000000000D+01 0.000000000000D+00 0.000000000000D+00
19 16  5 27 22  0  0.0-0.525648240000D-03 0.000000000000D+00 0.000000000000D+00
    0.780000000000D+02-0.576250000000D+02 0.455018953366D-08-0.631902270980D-01
   -0.289641320705D-05 0.107906591147D-01 0.464357435703D-05 0.515361770439D+04
    0.511200000000D+06-0.745058059692D-08-0.312019696905D+01 0.875443220139D-07
    0.973800167714D+00 0.297156250000D+03 0.775028711857D+00-0.834534761723D-08
   -0.132862677121D-09 0.100000000000D+01 0.189800000000D+04 0.000000000000D+00
    0.200000000000D+01 0.000000000000D+00-0.149011611938D-07 0.780000000000D+02
    0.504018000000D+06 0.400000000000D+01 0.000000000000D+00 0.000000000000D+00
21 16  5 27 22  0  0.0-0.524055678397D-03-0.125055521494D-11 0.000000000000D+00
    0.490000000000D+02-0.698750000000D+02 0.517700135717D-08-0.746251831721D+00
   -0.356137752533D-05 0.233653155155D-01 0.982731580734D-05 0.515361386681D+04
    0.511200000000D+06-0.284984707832D-06-0.219503925025D+01 0.253319740295D-06
    0.936335766120D+00 0.178781250000D+03-0.178870049092D+01-0.875250743421D-08
   -0.767889128522D-10 0.000000000000D+00 0.189800000000D+04 0.000000000000D+00
    0.200000000000D+01 0.000000000000D+00-0.102445483208D-07 0.490000000000D+02
    0.504000000000D+06 0.400000000000D+01 0.000000000000D+00 0.000000000000D+00
22 16  5 27 22  0  0.0 0.333111267537D-03-0.829913915368D-11 0.000000000000D+00
    0.730000000000D+02 0.981250000000D+01 0.541022535760D-08 0.266787899731D+01
    0.433996319771D-06 0.768670812249D-02 0.829994678497D-05 0.515381380844D+04
    0.511200000000D+06 0.745058059692D-07-0.115216119241D+01-0.100582838059D-06
    0.922574208393D+00 0.194812500000D+03-0.191724810026D+01-0.827391607039D-08
    0.161435295857D-09 0.100000000000D+01 0.189800000000D+04 0.000000000000D+00
    0.200000000000D+01 0.000000000000D+00-0.176951289177D-07 0.730000000000D+02
    0.504000000000D+06 0.400000000000D+01 0.000000000000D+00 0.000000000000D+00
23 16  5 27 22  0  0.0-0.175632536411D-03-0.159161572810D-11 0.000000000000D+00
    0.890000000000D+02 0.115937500000D+02 0.500735143343D-08 0.178512133749D+01
    0.592321157455D-06 0.109422216192D-01 0.664778053761D-05 0.515366937637D+04
    0.511200000000D+06-0.193715095520D-06-0.751641793926D-01 0.651925802231D-07
    0.946291340581D+00 0.247218750000D+03-0.257437415837D+01-0.834213319762D-08
   -0.266439669710D-09 0.000000000000D+00 0.189800000000D+04 0.000000000000D+00
    0.200000000000D+01 0.000000000000D+00-0.200234353542D-07 0.890000000000D+02
    0.507660000000D+06 0.400000000000D+01 0.000000000000D+00 0.000000000000D+00
24 16  5 27 22  0  0.0-0.177114270628D-04-0.568434188608D-12 0.000000000000D+00
    0.800000000000D+02 0.369062500000D+02 0.463090718159D-08 0.120953979458D+01
    0.170990824699D-05 0.441657332703D-02 0.917539000511D-05 0.515362115288D+04
    0.511200000000D+06 0.242143869400D-07 0.950251314993D+00 0.428408384323D-07
    0.949576991682D+00 0.196125000000D+03 0.415531838946D+00-0.812462413749D-08
   -0.234652631367D-09 0.100000000000D+01 0.189800000000D+04 0.000000000000D+00
    0.200000000000D+01 0.000000000000D+00 0.232830643654D-08 0.800000000000D+02
    0.505698000000D+06 0.400000000000D+01 0.000000000000D+00 0.000000000000D+00
27 16  5 27 22  0  0.0 0.971080735326D-04 0.409272615798D-11 0.000000000000D+00
    0.560000000000D+02-0.447500000000D+02 0.458447667614D-08 0.309976707815D+01
   -0.237673521042D-05 0.368002487812D-02 0.412575900555D-05 0.515364196587D+04
    0.511200000000D+06-0.126659870148D-06 0.306434945256D+01 0.130385160446D-07
    0.971623048640D+00 0.307187500000D+03 0.284157169681D+00-0.820141305035D-08
   -0.421446126351D-10 0.000000000000D+00 0.189800000000D+04 0.000000000000D+00
    0.200000000000D+01 0.000000000000D+00 0.139698386192D-08 0.560000000000D+02
    0.504000000000D+06 0.400000000000D+01 0.000000000000D+00 0.000000000000D+00
28 16  5 27 22  0  0.0 0.526011455804D-03 0.261479726760D-11 0.000000000000D+00
    0.116000000000D+03 0.533437500000D+02 0.388837625219D-08-0.239817992747D+01
    0.284798443317D-05 0.197276093531D-01 0.522658228874D-05 0.515363152123D+04
    0.511200000000D+06 0.206753611565D-06 0.209770638479D+01 0.178813934326D-06
    0.989381235654D+00 0.287375000000D+03-0.161617857354D+01-0.760317384557D-08
    0.362872257943D-09 0.100000000000D+01 0.189800000000D+04 0.000000000000D+00
    0.200000000000D+01 0.000000000000D+00-0.111758708954D-07 0.116000000000D+03
    0.504018000000D+06 0.400000000000D+01 0.000000000000D+00 0.000000000000D+00
